[{"OBJECT_NAME":"TROLL","OBJECT_ID":"2025-009BB","EPOCH":"2026-03-09T05:24:19.835712","MEAN_MOTION":15.28164315,"ECCENTRICITY":0.00018165,"INCLINATION":97.3932,"RA_OF_ASC_NODE":150.7169,"ARG_OF_PERICENTER":59.185,"MEAN_ANOMALY":300.9568,"EPHEMERIS_TYPE":0,"CLASSIFICATION_TYPE":"U","NORAD_CAT_ID":62658,"ELEMENT_SET_NO":999,"REV_AT_EPOCH":11817,"BSTAR":0.00048220305,"MEAN_MOTION_DOT":0.00013174,"MEAN_MOTION_DDOT":0},{"OBJECT_NAME":"STARLINK-35897","OBJECT_ID":"2025-263S","EPOCH":"2026-03-09T04:48:41.635296","MEAN_MOTION":15.2760485,"ECCENTRICITY":0.00016606,"INCLINATION":42.9993,"RA_OF_ASC_NODE":353.503,"ARG_OF_PERICENTER":284.9559,"MEAN_ANOMALY":75.1109,"EPHEMERIS_TYPE":0,"CLASSIFICATION_TYPE":"U","NORAD_CAT_ID":66501,"ELEMENT_SET_NO":999,"REV_AT_EPOCH":1882,"BSTAR":0.0013319962,"MEAN_MOTION_DOT":0.00036602,"MEAN_MOTION_DDOT":0}]
