TROLL                   
1 62658U 25009BB  26068.22522958  .00013174  00000+0  48220-3 0  9994
2 62658  97.3932 150.7169 0001816  59.1850 300.9568 15.28164315118170
STARLINK-35897          
1 66501U 25263S   26068.20048189  .00036602  00000+0  13320-2 0  9997
2 66501  42.9993 353.5030 0001660 284.9559  75.1109 15.27604850 18820
